[{"OBJECT_NAME":"STARLINK-36321","OBJECT_ID":"2026-041G","EPOCH":"2026-03-06T01:00:31.347072","MEAN_MOTION":16.0305757,"ECCENTRICITY":3.938e-5,"INCLINATION":53.1607,"RA_OF_ASC_NODE":80.9818,"ARG_OF_PERICENTER":123.5853,"MEAN_ANOMALY":236.5217,"EPHEMERIS_TYPE":0,"CLASSIFICATION_TYPE":"U","NORAD_CAT_ID":68046,"ELEMENT_SET_NO":999,"REV_AT_EPOCH":63,"BSTAR":6.3654936e-5,"MEAN_MOTION_DOT":0.00036466,"MEAN_MOTION_DDOT":1.200713e-5},{"OBJECT_NAME":"STARLINK-36181","OBJECT_ID":"2026-041H","EPOCH":"2026-03-05T22:01:08.112864","MEAN_MOTION":16.03005981,"ECCENTRICITY":0.00025048,"INCLINATION":53.1613,"RA_OF_ASC_NODE":81.628,"ARG_OF_PERICENTER":341.9342,"MEAN_ANOMALY":18.1601,"EPHEMERIS_TYPE":0,"CLASSIFICATION_TYPE":"U","NORAD_CAT_ID":68047,"ELEMENT_SET_NO":999,"REV_AT_EPOCH":61,"BSTAR":-0.00055577852,"MEAN_MOTION_DOT":-0.00352182,"MEAN_MOTION_DDOT":5.6519344e-5},{"OBJECT_NAME":"STARLINK-36318","OBJECT_ID":"2026-041J","EPOCH":"2026-03-05T20:30:58.980384","MEAN_MOTION":16.03695095,"ECCENTRICITY":0.00019306,"INCLINATION":53.1609,"RA_OF_ASC_NODE":81.949,"ARG_OF_PERICENTER":216.4713,"MEAN_ANOMALY":143.6188,"EPHEMERIS_TYPE":0,"CLASSIFICATION_TYPE":"U","NORAD_CAT_ID":68048,"ELEMENT_SET_NO":999,"REV_AT_EPOCH":60,"BSTAR":0.00058630161,"MEAN_MOTION_DOT":0.0037944,"MEAN_MOTION_DDOT":7.5728556e-5},{"OBJECT_NAME":"STARLINK-36885","OBJECT_ID":"2026-041K","EPOCH":"2026-03-06T00:59:54.939840","MEAN_MOTION":16.03284822,"ECCENTRICITY":0.00011213,"INCLINATION":53.1606,"RA_OF_ASC_NODE":80.9788,"ARG_OF_PERICENTER":111.7318,"MEAN_ANOMALY":248.3834,"EPHEMERIS_TYPE":0,"CLASSIFICATION_TYPE":"U","NORAD_CAT_ID":68049,"ELEMENT_SET_NO":999,"REV_AT_EPOCH":63,"BSTAR":-0.00041587733,"MEAN_MOTION_DOT":-0.00268809,"MEAN_MOTION_DDOT":3.8022398e-5},{"OBJECT_NAME":"STARLINK-36945","OBJECT_ID":"2026-041L","EPOCH":"2026-03-06T01:00:07.797888","MEAN_MOTION":16.03140488,"ECCENTRICITY":7.477e-5,"INCLINATION":53.1607,"RA_OF_ASC_NODE":80.9796,"ARG_OF_PERICENTER":123.3618,"MEAN_ANOMALY":236.7486,"EPHEMERIS_TYPE":0,"CLASSIFICATION_TYPE":"U","NORAD_CAT_ID":68050,"ELEMENT_SET_NO":999,"REV_AT_EPOCH":63,"BSTAR":-0.00045942945,"MEAN_MOTION_DOT":-0.00294029,"MEAN_MOTION_DDOT":4.3115782e-5},{"OBJECT_NAME":"STARLINK-35911","OBJECT_ID":"2026-041M","EPOCH":"2026-03-06T00:59:41.609184","MEAN_MOTION":16.03403245,"ECCENTRICITY":7.758e-5,"INCLINATION":53.1606,"RA_OF_ASC_NODE":80.9777,"ARG_OF_PERICENTER":102.2522,"MEAN_ANOMALY":257.8597,"EPHEMERIS_TYPE":0,"CLASSIFICATION_TYPE":"U","NORAD_CAT_ID":68051,"ELEMENT_SET_NO":999,"REV_AT_EPOCH":63,"BSTAR":-0.00045294916,"MEAN_MOTION_DOT":-0.00294472,"MEAN_MOTION_DDOT":4.3323052e-5},{"OBJECT_NAME":"STARLINK-35808","OBJECT_ID":"2026-041N","EPOCH":"2026-03-06T00:59:29.614272","MEAN_MOTION":16.03503394,"ECCENTRICITY":0.00017528,"INCLINATION":53.1608,"RA_OF_ASC_NODE":80.9771,"ARG_OF_PERICENTER":134.1273,"MEAN_ANOMALY":225.9904,"EPHEMERIS_TYPE":0,"CLASSIFICATION_TYPE":"U","NORAD_CAT_ID":68052,"ELEMENT_SET_NO":999,"REV_AT_EPOCH":63,"BSTAR":-0.0004801718,"MEAN_MOTION_DOT":-0.00313842,"MEAN_MOTION_DDOT":4.7633571e-5},{"OBJECT_NAME":"STARLINK-36919","OBJECT_ID":"2026-041P","EPOCH":"2026-03-06T00:59:16.691424","MEAN_MOTION":16.03627286,"ECCENTRICITY":0.0001531,"INCLINATION":53.1609,"RA_OF_ASC_NODE":80.976,"ARG_OF_PERICENTER":134.277,"MEAN_ANOMALY":225.8388,"EPHEMERIS_TYPE":0,"CLASSIFICATION_TYPE":"U","NORAD_CAT_ID":68053,"ELEMENT_SET_NO":999,"REV_AT_EPOCH":63,"BSTAR":-0.00043492457,"MEAN_MOTION_DOT":-0.00286719,"MEAN_MOTION_DDOT":4.1779914e-5},{"OBJECT_NAME":"STARLINK-36924","OBJECT_ID":"2026-041Q","EPOCH":"2026-03-05T21:59:23.618976","MEAN_MOTION":16.04306352,"ECCENTRICITY":0.00039813,"INCLINATION":53.1613,"RA_OF_ASC_NODE":81.6202,"ARG_OF_PERICENTER":185.7535,"MEAN_ANOMALY":174.3453,"EPHEMERIS_TYPE":0,"CLASSIFICATION_TYPE":"U","NORAD_CAT_ID":68054,"ELEMENT_SET_NO":999,"REV_AT_EPOCH":61,"BSTAR":0.00019704536,"MEAN_MOTION_DOT":0.00130205,"MEAN_MOTION_DDOT":1.8871136e-5},{"OBJECT_NAME":"STARLINK-35998","OBJECT_ID":"2026-041R","EPOCH":"2026-03-06T00:59:05.484480","MEAN_MOTION":16.03749796,"ECCENTRICITY":8.925e-5,"INCLINATION":53.1607,"RA_OF_ASC_NODE":80.9748,"ARG_OF_PERICENTER":123.1638,"MEAN_ANOMALY":236.9481,"EPHEMERIS_TYPE":0,"CLASSIFICATION_TYPE":"U","NORAD_CAT_ID":68055,"ELEMENT_SET_NO":999,"REV_AT_EPOCH":63,"BSTAR":-0.00044522906,"MEAN_MOTION_DOT":-0.00295535,"MEAN_MOTION_DDOT":4.3701815e-5},{"OBJECT_NAME":"STARLINK-36845","OBJECT_ID":"2026-041S","EPOCH":"2026-03-05T23:28:57.295488","MEAN_MOTION":16.04013847,"ECCENTRICITY":0.00034266,"INCLINATION":53.1613,"RA_OF_ASC_NODE":81.2963,"ARG_OF_PERICENTER":344.2338,"MEAN_ANOMALY":15.8587,"EPHEMERIS_TYPE":0,"CLASSIFICATION_TYPE":"U","NORAD_CAT_ID":68056,"ELEMENT_SET_NO":999,"REV_AT_EPOCH":62,"BSTAR":-0.00045641803,"MEAN_MOTION_DOT":-0.00307885,"MEAN_MOTION_DDOT":4.6532979e-5},{"OBJECT_NAME":"STARLINK-36954","OBJECT_ID":"2026-041T","EPOCH":"2026-03-05T23:28:46.424640","MEAN_MOTION":16.04134131,"ECCENTRICITY":0.00041292,"INCLINATION":53.1613,"RA_OF_ASC_NODE":81.2955,"ARG_OF_PERICENTER":349.7622,"MEAN_ANOMALY":10.3326,"EPHEMERIS_TYPE":0,"CLASSIFICATION_TYPE":"U","NORAD_CAT_ID":68057,"ELEMENT_SET_NO":999,"REV_AT_EPOCH":62,"BSTAR":-0.00050559879,"MEAN_MOTION_DOT":-0.00343211,"MEAN_MOTION_DDOT":5.4941963e-5},{"OBJECT_NAME":"STARLINK-36899","OBJECT_ID":"2026-041U","EPOCH":"2026-03-06T00:58:18.934752","MEAN_MOTION":16.04255728,"ECCENTRICITY":0.000425,"INCLINATION":53.161,"RA_OF_ASC_NODE":80.9714,"ARG_OF_PERICENTER":347.8885,"MEAN_ANOMALY":12.2045,"EPHEMERIS_TYPE":0,"CLASSIFICATION_TYPE":"U","NORAD_CAT_ID":68058,"ELEMENT_SET_NO":999,"REV_AT_EPOCH":63,"BSTAR":0.00012232536,"MEAN_MOTION_DOT":0.00079229,"MEAN_MOTION_DDOT":1.4223698e-5},{"OBJECT_NAME":"STARLINK-36917","OBJECT_ID":"2026-041V","EPOCH":"2026-03-05T23:28:23.195136","MEAN_MOTION":16.04399058,"ECCENTRICITY":0.0003337,"INCLINATION":53.1613,"RA_OF_ASC_NODE":81.294,"ARG_OF_PERICENTER":352.4066,"MEAN_ANOMALY":7.6916,"EPHEMERIS_TYPE":0,"CLASSIFICATION_TYPE":"U","NORAD_CAT_ID":68059,"ELEMENT_SET_NO":999,"REV_AT_EPOCH":62,"BSTAR":-0.00044575118,"MEAN_MOTION_DOT":-0.00307785,"MEAN_MOTION_DDOT":4.6695067e-5},{"OBJECT_NAME":"STARLINK-36959","OBJECT_ID":"2026-041W","EPOCH":"2026-03-06T00:57:55.063296","MEAN_MOTION":16.04473174,"ECCENTRICITY":0.00010254,"INCLINATION":53.1607,"RA_OF_ASC_NODE":80.9694,"ARG_OF_PERICENTER":130.1464,"MEAN_ANOMALY":229.9659,"EPHEMERIS_TYPE":0,"CLASSIFICATION_TYPE":"U","NORAD_CAT_ID":68060,"ELEMENT_SET_NO":999,"REV_AT_EPOCH":63,"BSTAR":-0.00013520749,"MEAN_MOTION_DOT":-0.00096272,"MEAN_MOTION_DDOT":1.4821021e-5},{"OBJECT_NAME":"STARLINK-36915","OBJECT_ID":"2026-041X","EPOCH":"2026-03-06T00:57:43.158240","MEAN_MOTION":16.04594639,"ECCENTRICITY":0.00018005,"INCLINATION":53.1605,"RA_OF_ASC_NODE":80.9687,"ARG_OF_PERICENTER":129.5685,"MEAN_ANOMALY":230.5507,"EPHEMERIS_TYPE":0,"CLASSIFICATION_TYPE":"U","NORAD_CAT_ID":68061,"ELEMENT_SET_NO":999,"REV_AT_EPOCH":63,"BSTAR":-6.516374e-5,"MEAN_MOTION_DOT":-0.00048608,"MEAN_MOTION_DDOT":1.2219042e-5}]
